1 25544U 98067A   24260.84765470  .00080194  00000-0  14358-2 0  9990
2 25544  51.6363 221.3415 0007739 357.9498  88.1484 15.49233013472765
1 25544U 98067A   24259.81328615  .00025315  00000-0  46311-3 0  9990
2 25544  51.6381 226.4677 0007649 358.1564  75.3976 15.49164473472608
1 25544U 98067A   24259.04042691 -.00020782  00000-0 -36841-3 0  9994
2 25544  51.6359 230.2949 0007613 354.9391  85.5828 15.49088255472489
